[{"OBJECT_NAME":"STARLINK-4021","OBJECT_ID":"2022-083T","EPOCH":"2026-03-09T12:36:59.387040","MEAN_MOTION":15.08842093,"ECCENTRICITY":0.00013833,"INCLINATION":53.2174,"RA_OF_ASC_NODE":165.0594,"ARG_OF_PERICENTER":89.0535,"MEAN_ANOMALY":271.0615,"EPHEMERIS_TYPE":0,"CLASSIFICATION_TYPE":"U","NORAD_CAT_ID":53149,"ELEMENT_SET_NO":999,"REV_AT_EPOCH":20133,"BSTAR":1.5872904e-5,"MEAN_MOTION_DOT":-3.5e-7,"MEAN_MOTION_DDOT":0},{"OBJECT_NAME":"SL-24 R\/B","OBJECT_ID":"2010-030B","EPOCH":"2026-03-09T20:03:11.519136","MEAN_MOTION":14.28694925,"ECCENTRICITY":0.04193605,"INCLINATION":97.4475,"RA_OF_ASC_NODE":10.8424,"ARG_OF_PERICENTER":179.6805,"MEAN_ANOMALY":180.473,"EPHEMERIS_TYPE":0,"CLASSIFICATION_TYPE":"U","NORAD_CAT_ID":36606,"ELEMENT_SET_NO":999,"REV_AT_EPOCH":81697,"BSTAR":0.0001219417,"MEAN_MOTION_DOT":7.51e-6,"MEAN_MOTION_DDOT":0}]
